{
  "type": "FeatureCollection",
  "features": [
    {
      "type": "Feature",
      "properties": {
        "norad_id": 30893,
        "name": "FENGYUN 1C DEB",
        "group": "fengyun-1c-debris",
        "lat": 0.9874471999151584,
        "lon": 23.586144916016355,
        "alt_km": 802.930190296599,
        "timestamp": "2025-12-23T16:57:12.632002+00:00",
        "meta_object_name": "FENGYUN 1C DEB",
        "meta_object_id": "1999-025AYF",
        "meta_epoch": "2025-12-18T08:03:40.157280",
        "meta_mean_motion": 13.9408223,
        "meta_eccentricity": 0.03091633,
        "meta_inclination": 98.2558,
        "meta_ra_of_asc_node": 18.9197,
        "meta_arg_of_pericenter": 77.2706,
        "meta_mean_anomaly": 348.8675,
        "meta_ephemeris_type": 0,
        "meta_classification_type": "U",
        "meta_norad_cat_id": 30893,
        "meta_element_set_no": 999,
        "meta_rev_at_epoch": 94963,
        "meta_bstar": 0.00050651987,
        "meta_mean_motion_dot": 9.62e-06,
        "meta_mean_motion_ddot": 0,
        "tle_line1": "1 30893U 99025AYF 25352.33588145  .00000962  00000+0  50652-3 0  9999",
        "tle_line2": "2 30893  98.2558  18.9197 0309163  77.2706 348.8675 13.94082230949632"
      },
      "geometry": {
        "type": "Point",
        "coordinates": [
          23.586144916016355,
          0.9874471999151584
        ]
      }
    },
    {
      "type": "Feature",
      "properties": {
        "norad_id": 30895,
        "name": "FENGYUN 1C DEB",
        "group": "fengyun-1c-debris",
        "lat": -64.03255214731647,
        "lon": 84.61207009486046,
        "alt_km": 937.5273684434042,
        "timestamp": "2025-12-23T16:57:12.632013+00:00",
        "meta_object_name": "FENGYUN 1C DEB",
        "meta_object_id": "1999-025AYH",
        "meta_epoch": "2025-12-23T03:58:41.835936",
        "meta_mean_motion": 14.3156954,
        "meta_eccentricity": 0.02182388,
        "meta_inclination": 98.7178,
        "meta_ra_of_asc_node": 65.7051,
        "meta_arg_of_pericenter": 93.589,
        "meta_mean_anomaly": 297.3425,
        "meta_ephemeris_type": 0,
        "meta_classification_type": "U",
        "meta_norad_cat_id": 30895,
        "meta_element_set_no": 999,
        "meta_rev_at_epoch": 97942,
        "meta_bstar": 0.00027575961,
        "meta_mean_motion_dot": 9.04e-06,
        "meta_mean_motion_ddot": 0,
        "tle_line1": "1 30895U 99025AYH 25357.16576199  .00000904  00000+0  27576-3 0  9998",
        "tle_line2": "2 30895  98.7178  65.7051 0218238  93.5890 297.3425 14.31569540979420"
      },
      "geometry": {
        "type": "Point",
        "coordinates": [
          84.61207009486046,
          -64.03255214731647
        ]
      }
    },
    {
      "type": "Feature",
      "properties": {
        "norad_id": 30898,
        "name": "FENGYUN 1C DEB",
        "group": "fengyun-1c-debris",
        "lat": 80.78972851170845,
        "lon": -167.2296244408779,
        "alt_km": 459.5150676797739,
        "timestamp": "2025-12-23T16:57:12.632025+00:00",
        "meta_object_name": "FENGYUN 1C DEB",
        "meta_object_id": "1999-025AYL",
        "meta_epoch": "2025-12-23T00:48:29.058624",
        "meta_mean_motion": 15.23495494,
        "meta_eccentricity": 0.0041564,
        "meta_inclination": 99.0249,
        "meta_ra_of_asc_node": 270.5471,
        "meta_arg_of_pericenter": 79.1364,
        "meta_mean_anomaly": 281.4542,
        "meta_ephemeris_type": 0,
        "meta_classification_type": "U",
        "meta_norad_cat_id": 30898,
        "meta_element_set_no": 999,
        "meta_rev_at_epoch": 66528,
        "meta_bstar": 0.0035496817,
        "meta_mean_motion_dot": 0.00087612,
        "meta_mean_motion_ddot": 0,
        "tle_line1": "1 30898U 99025AYL 25357.03366966  .00087612  00000+0  35497-2 0  9997",
        "tle_line2": "2 30898  99.0249 270.5471 0041564  79.1364 281.4542 15.23495494665288"
      },
      "geometry": {
        "type": "Point",
        "coordinates": [
          -167.2296244408779,
          80.78972851170845
        ]
      }
    },
    {
      "type": "Feature",
      "properties": {
        "norad_id": 30899,
        "name": "FENGYUN 1C DEB",
        "group": "fengyun-1c-debris",
        "lat": 79.49261654292357,
        "lon": -164.7725186569351,
        "alt_km": 793.6113407816283,
        "timestamp": "2025-12-23T16:57:12.632037+00:00",
        "meta_object_name": "FENGYUN 1C DEB",
        "meta_object_id": "1999-025AYM",
        "meta_epoch": "2025-12-22T12:39:57.136896",
        "meta_mean_motion": 14.33729751,
        "meta_eccentricity": 0.00306026,
        "meta_inclination": 99.1768,
        "meta_ra_of_asc_node": 254.6206,
        "meta_arg_of_pericenter": 262.1688,
        "meta_mean_anomaly": 222.6158,
        "meta_ephemeris_type": 0,
        "meta_classification_type": "U",
        "meta_norad_cat_id": 30899,
        "meta_element_set_no": 999,
        "meta_rev_at_epoch": 96795,
        "meta_bstar": 0.0023049821,
        "meta_mean_motion_dot": 6.39e-05,
        "meta_mean_motion_ddot": 0,
        "tle_line1": "1 30899U 99025AYM 25356.52774464  .00006390  00000+0  23050-2 0  9993",
        "tle_line2": "2 30899  99.1768 254.6206 0030602 262.1688 222.6158 14.33729751967954"
      },
      "geometry": {
        "type": "Point",
        "coordinates": [
          -164.7725186569351,
          79.49261654292357
        ]
      }
    },
    {
      "type": "Feature",
      "properties": {
        "norad_id": 30903,
        "name": "FENGYUN 1C DEB",
        "group": "fengyun-1c-debris",
        "lat": -51.417407069523975,
        "lon": 51.5915995115926,
        "alt_km": 977.9704203385463,
        "timestamp": "2025-12-23T16:57:12.632048+00:00",
        "meta_object_name": "FENGYUN 1C DEB",
        "meta_object_id": "1999-025AYR",
        "meta_epoch": "2025-12-19T10:28:48.530784",
        "meta_mean_motion": 13.9760163,
        "meta_eccentricity": 0.0096627,
        "meta_inclination": 99.3709,
        "meta_ra_of_asc_node": 239.183,
        "meta_arg_of_pericenter": 75.1557,
        "meta_mean_anomaly": 286.0284,
        "meta_ephemeris_type": 0,
        "meta_classification_type": "U",
        "meta_norad_cat_id": 30903,
        "meta_element_set_no": 999,
        "meta_rev_at_epoch": 68798,
        "meta_bstar": -3.3732e-05,
        "meta_mean_motion_dot": -9.5e-07,
        "meta_mean_motion_ddot": 0,
        "tle_line1": "1 30903U 99025AYR 25353.43667281 -.00000095  00000+0 -33732-4 0  9992",
        "tle_line2": "2 30903  99.3709 239.1830 0096627  75.1557 286.0284 13.97601630687984"
      },
      "geometry": {
        "type": "Point",
        "coordinates": [
          51.5915995115926,
          -51.417407069523975
        ]
      }
    },
    {
      "type": "Feature",
      "properties": {
        "norad_id": 30905,
        "name": "FENGYUN 1C DEB",
        "group": "fengyun-1c-debris",
        "lat": -56.39531522466666,
        "lon": 86.73485891214143,
        "alt_km": 851.2535473898552,
        "timestamp": "2025-12-23T16:57:12.632058+00:00",
        "meta_object_name": "FENGYUN 1C DEB",
        "meta_object_id": "1999-025AYT",
        "meta_epoch": "2025-12-19T23:27:42.496416",
        "meta_mean_motion": 14.17868833,
        "meta_eccentricity": 0.00564293,
        "meta_inclination": 98.8891,
        "meta_ra_of_asc_node": 69.3817,
        "meta_arg_of_pericenter": 60.2635,
        "meta_mean_anomaly": 300.4138,
        "meta_ephemeris_type": 0,
        "meta_classification_type": "U",
        "meta_norad_cat_id": 30905,
        "meta_element_set_no": 999,
        "meta_rev_at_epoch": 96225,
        "meta_bstar": 0.00069884909,
        "meta_mean_motion_dot": 1.406e-05,
        "meta_mean_motion_ddot": 0,
        "tle_line1": "1 30905U 99025AYT 25353.97757519  .00001406  00000+0  69885-3 0  9999",
        "tle_line2": "2 30905  98.8891  69.3817 0056429  60.2635 300.4138 14.17868833962256"
      },
      "geometry": {
        "type": "Point",
        "coordinates": [
          86.73485891214143,
          -56.39531522466666
        ]
      }
    },
    {
      "type": "Feature",
      "properties": {
        "norad_id": 30907,
        "name": "FENGYUN 1C DEB",
        "group": "fengyun-1c-debris",
        "lat": 28.737306111128508,
        "lon": -155.45690306407693,
        "alt_km": 810.2224431742216,
        "timestamp": "2025-12-23T16:57:12.632068+00:00",
        "meta_object_name": "FENGYUN 1C DEB",
        "meta_object_id": "1999-025AYV",
        "meta_epoch": "2025-12-17T21:06:12.131712",
        "meta_mean_motion": 14.15106189,
        "meta_eccentricity": 0.00565923,
        "meta_inclination": 99.9513,
        "meta_ra_of_asc_node": 12.5269,
        "meta_arg_of_pericenter": 124.1859,
        "meta_mean_anomaly": 236.4694,
        "meta_ephemeris_type": 0,
        "meta_classification_type": "U",
        "meta_norad_cat_id": 30907,
        "meta_element_set_no": 999,
        "meta_rev_at_epoch": 1622,
        "meta_bstar": 0.00072022378,
        "meta_mean_motion_dot": 1.366e-05,
        "meta_mean_motion_ddot": 0,
        "tle_line1": "1 30907U 99025AYV 25351.87930708  .00001366  00000+0  72022-3 0  9993",
        "tle_line2": "2 30907  99.9513  12.5269 0056592 124.1859 236.4694 14.15106189 16220"
      },
      "geometry": {
        "type": "Point",
        "coordinates": [
          -155.45690306407693,
          28.737306111128508
        ]
      }
    }
  ]
}